COSMOS-2426-(717)-------
1 29671U 06062B   19068.38901597  .00000037  00000-0  10000-3 0  9999
2 29671  65.1681 283.6721 0016574 159.4882 182.4607  2.13102984 94969
COSMOS-2433-(720)-------
1 32275U 07052A   19068.67124765 -.00000014  00000-0  10000-3 0  9995
2 32275  65.8109  44.4651 0005195 275.6982 259.1301  2.13104429 88488
COSMOS-2432-(719)-------
1 32276U 07052B   19068.32194882 -.00000016  00000-0  10000-3 0  9997
2 32276  65.8234  44.5582 0013216 324.3205 253.8349  2.13103782 88478
COSMOS-2434-(721)-------
1 32393U 07065A   19068.62518280  .00000038  00000-0  00000-0 0  9995
2 32393  64.7657 282.4073 0005031  85.1768 301.8206  2.13102902 87192
COSMOS-2436-(723)-------
1 32395U 07065C   19068.05825668  .00000037  00000-0  10000-3 0  9998
2 32395  64.7772 282.4791 0017199   4.8870 358.9704  2.13104246 87110
COSMOS-2456-(730)-------
1 36111U 09070A   19068.47603469  .00000028  00000-0  00000-0 0  9991
2 36111  64.1951 162.0344 0003912 321.0272 124.4412  2.13102750 71852
COSMOS-2457-(733)-------
1 36112U 09070B   19068.57543564  .00000028  00000-0  00000+0 0  9991
2 36112  64.1778 161.9357 0005789 164.9097 122.3739  2.13101447 71856
COSMOS-2459-(731)-------
1 36400U 10007A   19068.39163883 -.00000017  00000-0  10000-3 0  9999
2 36400  65.7176  43.5034 0027935 345.9906 191.0712  2.13102113 70202
COSMOS-2461-(735)-------
1 36401U 10007B   19068.54860634 -.00000017  00000-0  10000-3 0  9995
2 36401  65.7112  43.4704 0005458  41.1947 166.8218  2.13102083 70209
COSMOS-2460-(732)-------
1 36402U 10007C   19068.45290980 -.00000017  00000-0  10000-3 0  9997
2 36402  65.7000  43.4394 0002840 295.3280 239.3973  2.13101461 70209
COSMOS-2464-(736)-------
1 37139U 10041C   19068.02933424  .00000037  00000-0  00000+0 0  9999
2 37139  64.3674 282.1004 0026592  14.6353 142.2627  2.13100627 66264
COSMOS-2474-(742)-------
1 37829U 11055A   19068.20231464  .00000028  00000-0  00000-0 0  9997
2 37829  64.5179 162.8729 0008187 243.9884 208.3855  2.13101774 57841
COSMOS-2476-(744)-------
1 37867U 11064A   19068.44669992  .00000028  00000-0  00000+0 0  9995
2 37867  64.4977 162.9190 0018351 239.2202  86.7498  2.13101887 57191
COSMOS-2477-(745)-------
1 37868U 11064B   19068.40505692  .00000028  00000-0  00000-0 0  9999
2 37868  64.5055 162.9711 0016053 240.3148 232.4609  2.13101650 57156
COSMOS-2475-(743)-------
1 37869U 11064C   19068.45006172  .00000028  00000-0  00000-0 0  9994
2 37869  64.5135 162.9674 0020063 265.1103 199.1849  2.13101826 57167
COSMOS-2485-(747)-------
1 39155U 13019A   19068.55077958  .00000029  00000-0  00000+0 0  9997
2 39155  64.6663 163.0829 0018789 234.3658 216.2309  2.13101817 45678
COSMOS-2492-(754)-------
1 39620U 14012A   19068.24744690 -.00000019  00000-0  10000-3 0  9993
2 39620  65.5907  43.2937 0016444 322.5313 290.3858  2.13103311 38618
COSMOS-2500-(755)-------
1 40001U 14032A   19068.39144281 -.00000018  00000-0  00000-0 0  9991
2 40001  65.5323  43.2381 0006851 232.6662 352.3558  2.13102673 36835
COSMOS-2501-(702K)------
1 40315U 14075A   19068.12966162  .00000035  00000-0  00000+0 0  9994
2 40315  64.0976 283.2116 0014635 204.9819 338.1224  2.13098653 33233
COSMOS-2514-(751)-------
1 41330U 16008A   19068.33138737 -.00000019  00000-0  00000-0 0  9996
2 41330  65.3339  43.2283 0010418 231.3619 129.0691  2.13103110 24009
COSMOS-2516-(753)-------
1 41554U 16032A   19068.61349904  .00000036  00000-0  00000+0 0  9999
2 41554  64.3112 283.1373 0010281 217.7218 249.8060  2.13101681 21617
COSMOS-2522-(752)-------
1 42939U 17055A   19068.40928900  .00000037  00000-0  00000+0 0  9990
2 42939  64.5430 283.1870 0005184 254.7780 282.5721  2.13102028 11368
COSMOS-2527-(756)-------
1 43508U 18053A   19068.74239639  .00000029  00000-0  00000+0 0  9994
2 43508  64.8311 162.8268 0006899 230.3415 233.5219  2.13102534  5661
COSMOS-2529-(757)-------
1 43687U 18086A   19068.65803538  .00000038  00000-0  00000+0 0  9993
2 43687  64.7562 283.1694 0008555 282.6814  41.2194  2.13102010  2673